W
NOAA 1 [-]              
1 04793U 70106A   21077.79596187 -.00000044  00000-0 -82600-6 0  9998
2 04793 101.6172 146.8789 0032119 128.0073 344.4446 12.53998370300473
NOAA 2 (ITOS-D) [-]     
1 06235U 72082A   21078.16171211 -.00000031  00000-0  90572-4 0  9995
2 06235 101.8954  53.7132 0003798 224.2309 146.9832 12.53132674215168
NOAA 3 [-]              
1 06920U 73086A   21078.15115986 -.00000035  00000-0  80647-4 0  9993
2 06920 102.1492  54.4554 0006695  51.0894 319.4294 12.40343137144524
NOAA 4 [-]              
1 07529U 74089A   21077.38187365 -.00000026  00000-0  12176-3 0  9998
2 07529 101.8530  51.8902 0008703 258.3876 270.6854 12.53148352119664
NOAA 5 [-]              
1 09057U 76077A   21078.18326541 -.00000029  00000-0  11736-3 0  9999
2 09057 102.0321  47.3253 0009621 260.8370 110.8567 12.37758453 17630
TIROS N [-]             
1 11060U 78096A   21078.12068603  .00000024  00000-0  32472-4 0  9990
2 11060  98.6996 137.3043 0010759  19.3065 340.8516 14.18300471407304
NOAA 6 [-]              
1 11416U 79057A   21077.94830367  .00000038  00000-0  30001-4 0  9997
2 11416  98.6671  83.0547 0010743 156.8283 203.3387 14.33622970176251
NOAA 7 [-]              
1 12553U 81059A   21077.67709165 -.00000022  00000-0  12108-4 0  9998
2 12553  99.0589 109.8778 0010995 335.2421  24.8224 14.17292093 53235
NOAA 8 [-]              
1 13923U 83022A   21077.80713132  .00000008  00000-0  20663-4 0  9994
2 13923  98.6489  66.1931 0016244 101.8655 258.4349 14.28729148977344
NOAA 9 [-]              
1 15427U 84123A   21077.87238160  .00000018  00000-0  32035-4 0  9995
2 15427  98.9831  39.7982 0015297  21.4515 358.5870 14.16125363872138
NOAA 10 [-]             
1 16969U 86073A   21077.84996868  .00000008  00000-0  20578-4 0  9994
2 16969  98.5279  68.5626 0011642 204.2622 218.9459 14.28127388795809
NOAA 11 [-]             
1 19531U 88089A   21077.62878674 -.00000014  00000-0  13632-4 0  9992
2 19531  98.4065  87.4518 0012143  56.5259 303.7074 14.15269493676343
NOAA 12 [-]             
1 21263U 91032A   21077.88958631 -.00000008  00000-0  14459-4 0  9990
2 21263  98.5069  85.8190 0012743 229.4603 130.5468 14.25935126551801
NOAA 13 [-]             
1 22739U 93050A   21077.85393864  .00000011  00000-0  28007-4 0  9996
2 22739  98.4663  76.5695 0008976 202.7833 157.2943 14.12778113422727
NOAA 14 [-]             
1 23455U 94089A   21077.83747974 -.00000032  00000-0  47963-5 0  9995
2 23455  98.5043 122.8201 0009340 186.4269 173.6786 14.14158593352311
NOAA 15 [B]             
1 25338U 98030A   21078.48550228  .00000019  00000-0  26588-4 0  9996
2 25338  98.6927 107.7714 0010544 176.8782 183.2465 14.26017809188424
NOAA 16 [-]             
1 26536U 00055A   21077.89370774 -.00000003  00000-0  21427-4 0  9998
2 26536  98.6969 145.9350 0010952  30.8770 329.3044 14.13273019353007
NOAA 17 [-]             
1 27453U 02032A   21078.11224338  .00000048  00000-0  38804-4 0  9999
2 27453  98.6190  25.1586 0012280 152.2029 207.9809 14.25051408974013
NOAA 18 [B]             
1 28654U 05018A   21078.34950570  .00000070  00000-0  62442-4 0  9999
2 28654  99.0044 142.8176 0014592 172.8037 187.3346 14.12590267815813
NOAA 19 [+]             
1 33591U 09005A   21078.44588499  .00000001  00000-0  25677-4 0  9996
2 33591  99.1912  96.8892 0014314  28.7316 331.4641 14.12456037624216
SUOMI NPP [+]           
1 37849U 11061A   21078.30990806  .00000015  00000-0  27973-4 0  9991
2 37849  98.7300  18.2206 0001035 112.6226  39.6480 14.19553882486619
NOAA 20 [+]             
1 43013U 17073A   21078.38607927  .00000010  00000-0  25305-4 0  9999
2 43013  98.7132  18.4340 0000804  84.0667 276.0601 14.19538842172665
